KUIPER-00246            
1 67151U 25301U   26008.57639859  .00029560  00000+0  82550-3 0  9993
2 67151  51.8734 355.6136 0004024 152.3380 207.7821 15.36465281  4519
KUIPER-00247            
1 67152U 25301V   26008.54113774  .00021269  00000+0  63633-3 0  9993
2 67152  51.8648 356.1101 0011147 194.4340 165.6328 15.34443960  4487
KUIPER-00248            
1 67153U 25301W   26008.59523981  .00020343  00000+0  59526-3 0  9992
2 67153  51.8688 355.7323 0008428 179.5124 180.5872 15.35198112  4662
KUIPER-00249            
1 67154U 25301X   26008.46234075  .00025276  00000+0  72819-3 0  9992
2 67154  51.8661 356.3401 0008447 177.9516 182.1506 15.35552358  4473
KUIPER-00250            
1 67155U 25301Y   26008.58472196  .00051264  00000+0  14363-2 0  9999
2 67155  51.8718 355.6680 0006644 165.7956 194.3218 15.36089785  4529
KUIPER-00251            
1 67156U 25301Z   26008.59468718  .00021843  00000+0  63877-3 0  9991
2 67156  51.8675 355.7271 0009011 176.1623 183.9433 15.35167186  4688
KUIPER-00252            
1 67157U 25301AA  26008.53668084  .00020030  00000+0  59293-3 0  9998
2 67157  51.8671 356.0850 0009805 188.4528 171.6294 15.34831586  4481
KUIPER-00261            
1 67158U 25301AB  26008.45377031  .00009057  00000+0  26449-3 0  9992
2 67158  51.8699 356.2898 0006620 161.6788 198.4437 15.36045700  4471
KUIPER-00265            
1 67159U 25301AC  26008.58335648 -.01860158  00000+0 -70174-1 0  9997
2 67159  51.8771 355.6814 0001200 151.4070 207.7243 15.30142522  4523
GALILEO 33              
1 67160U 25302A   25352.14605887 -.00000007  00000+0  00000+0 0  9994
2 67160  54.2406 107.2544 0008423 237.6458 122.2317  1.72906186    28
GALILEO B               
1 67161U 25302B   26007.95780000 -.00000021  00000+0  00000+0 0  9999
2 67161  54.2395 106.6121 0005078 260.5272  99.4223  1.72972217   391
GALILEO 33 (139)        
1 67162U 25302C   25356.18244914  .00000006  00000+0  00000+0 0  9992
2 67162  54.2447 107.1379 0000312 196.8367 159.4994  1.73130437   127
